#aV2022  5 17  0  0  0.00000000     288 DD+AD WGS84 FIT  NGA
## 2210 172800.00000000   300.00000000 59716 0.0000000000000
+   32     1  2  3  4  5  6  7  8  9 10 11 12 13 14 15 16 17
+         18 19 20 21 22 23 24 25 26 27 28 29 30 31 32  0  0
+          0  0  0  0  0  0  0  0  0  0  0  0  0  0  0  0  0
+          0  0  0  0  0  0  0  0  0  0  0  0  0  0  0  0  0
+          0  0  0  0  0  0  0  0  0  0  0  0  0  0  0  0  0
++         2  2  2  2  2  2  2  2  2  2  2  2  2  2  2  2  2
++         2  2  2  2  2  2  2  2  2  2  2  2  2  2  2  0  0
++         0  0  0  0  0  0  0  0  0  0  0  0  0  0  0  0  0
++         0  0  0  0  0  0  0  0  0  0  0  0  0  0  0  0  0
++         0  0  0  0  0  0  0  0  0  0  0  0  0  0  0  0  0
%c cc cc ccc ccc cccc cccc cccc cccc ccccc ccccc ccccc ccccc
%c cc cc ccc ccc cccc cccc cccc cccc ccccc ccccc ccccc ccccc
%f  0.0000000  0.000000000  0.00000000000  0.000000000000000
%f  0.0000000  0.000000000  0.00000000000  0.000000000000000
%i    0    0    0    0      0      0      0      0         0
%i    0    0    0    0      0      0      0      0         0
/*      NGA, ST. LOUIS,MO.                                  
/*   EPHEMERIS COMPUTED FROM 2 DAYS OF DATA                 
/*   EPOCHA v7 SMOOTHER                                     
/*   G2139 IERS2010 SATIGS SATAPC                           
*  2022  5 17  9  5  0.00000000
P  1 -20374.480711 -14096.293117 -10342.766453    361.165628                    
V  1  12326.000588   2704.060093 -28459.973632     -0.082705                    
P  2   -474.348751  15610.882400  22124.880067   -653.230084                    
V  2 -25892.919636  -5862.333254   3839.174294      0.000966                    
P  3 -12678.160420 -19966.523817  12091.926200   -247.191923                    
V  3  -1323.253437 -15527.726270 -26673.989697     -0.134938                    
P  4 -11698.340133  -9957.496675  21681.050220   -166.450315                    
V  4  20886.553888 -17892.733444   2968.587752      0.036072                    
P  5   5251.416624  25864.749646   1968.322080    -82.148425                    
V  5  -3530.450287  -1887.052565  31724.528430     -0.013704                    
P  6 -16352.376515   8094.244480  19393.465664    306.618522                    
V  6 -22889.954890  -8489.835814 -15728.428853      0.146498                    
P  7 -25873.948810  -5241.758432  -4367.083221    322.126280                    
V  7  -4829.821794  -4431.406308  30573.860093      0.002167                    
P  8  -3634.630712 -16277.246886 -20629.622493    -68.357644                    
V  8  19776.543247 -17192.808349  10446.795950     -0.015399                    
P  9 -19286.788645    395.790983  18203.157823   -336.092360                    
V  9  15832.994312 -17117.278820  17055.958211      0.029326                    
P 10  12776.030062  -9152.959312 -21216.106592   -417.726029                    
V 10   6499.916825  26526.319082  -7761.664789     -0.145859                    
P 11  -1483.397355  15476.122677  21531.063055    -23.949695                    
V 11 -25663.203051  -9440.266785   5000.303290      0.045766                    
P 12   9207.170332  23370.631683   8539.560373   -216.749560                    
V 12   -728.365142  11385.569518 -29337.683298     -0.058377                    
P 13  -6746.855527  19034.047536 -17312.961250    313.087480                    
V 13 -18877.345929  10903.528963  19682.823304      0.068247                    
P 14 -13954.352661   7748.560071 -21219.390655   -108.639538                    
V 14  -5273.173104 -26467.352746  -6285.120975     -0.016429                    
P 15   6649.104707  15853.656136 -20593.997613    -60.594168                    
V 15 -17440.857117  18530.386775   9126.306342      0.029863                    
P 16   1091.846294 -25516.441097   6082.614647   -501.578692                    
V 16   3837.074933   7763.238814  30964.703257     -0.032428                    
P 17 -22199.299443  13749.059037  -4562.520958    613.648537                    
V 17   3561.360605  -5675.829259 -31414.516656      0.045866                    
P 18  25631.287975   5618.976750  -4489.985826    167.880005                    
V 18   4594.345745   4051.755497  31247.910097     -0.101827                    
P 19 -20399.495615  16646.367241   2220.656076    158.421366                    
V 19  -4003.806064   -152.894195 -32093.649692      0.049684                    
P 20   -674.539291  23523.667090  12537.775685    514.832967                    
V 20  -8114.836083 -13877.249093  25376.784729     -0.010757                    
P 21 -12984.910763 -15346.515334 -17055.031918    161.112451                    
V 21  22397.802185   3755.302218 -19037.212188      0.001593                    
P 22  18047.711150 -18657.294436   5564.268668    260.489781                    
V 22   6936.957029  -1746.720822 -30822.330310      0.061835                    
P 23  15732.579208   2983.559328 -21217.581578    -22.410068                    
V 23   5787.106964  26250.233986   7885.335629     -0.024585                    
P 24  17826.446872  14697.409696 -13756.156494    239.558991                    
V 24 -16985.737990  -1542.729986 -23776.927435     -0.069056                    
P 25  15581.028733  11298.854534  18131.642724    325.759191                    
V 25   3596.107984  23297.478313 -17067.213047      0.048195                    
P 26   6735.845561 -19885.653152  15998.325308    206.186602                    
V 26   7911.851244  19259.552521  20804.859515      0.025881                    
P 27   8546.189641 -20732.455946 -14129.341584    204.137814                    
V 27  14539.014174 -10335.475423  24710.637512      0.059155                    
P 28  -9981.796397  17059.359416 -17342.181605    356.448624                    
V 28  -4242.352815 -22588.031982 -18992.037867     -0.068056                    
P 29  18878.175278   1152.245108  18622.261133   -514.510156                    
V 29 -18017.810973  15411.844820  17197.368262     -0.040109                    
P 30 -23073.733897   2288.822030 -13096.466016   -528.200107                    
V 30 -14952.274898  -7962.544189  24540.988644     -0.014343                    
P 31  14648.066827  -9774.833765  19887.378685   -177.961020                    
V 31  23671.398078   9321.917231 -12313.083160     -0.015790                    
P 32  20754.768221 -16085.159359  -3088.692422   -129.034076                    
V 32   -965.600812   5048.178269 -31485.376793     -0.087369                    
EOF
